PK,NOMBRE,DESCRIPCION-ENTIDAD,HORARIO,parking,cercanias,bicimad,bus,metro,ACCESIBILIDAD,CONTENT-URL,DIRECCION,BARRIO,DISTRITO,COORDENADA-X,COORDENADA-Y,LATITUD,LONGITUD,TELEFONO,EMAIL,TIPO
4847190,Casa Museo Lope de Vega,'Mi casilla  mi quietud  mi g&amp;uuml;ertecillo y estudio'. Así define su casa Félix Lope de Vega (1562-1635) en una carta dirigida a un amigo. Situada en pleno centro histórico  en el Barrio de las Letras  la Casa Museo Lope de Vega se ubica en el edificio donde el escritor vivió sus últimos 25 años. La recreación de ambientes  cuyo objetivo es que se respire la presencia de Lope  evoca la vida cotidiana del Siglo de Oro y nos acerca a su intimidad. El equipamiento de la casa incorpora obras de arte  mobiliario  enseres y ediciones bibliográficas vinculadas al literato y su tiempo.  Visitas Guiadas: de nartres a domingo  para todos los públicos. Más información en web,De martes a domingo de 10 a 18 horas  Cerrado los lunes; días 1 y 6 de enero; 1 de mayo; 9 de noviembre y 24; 25 y 31 de diciembre.,NULL,Sol (líneas C3 y C4),Estación 27 (calle Jesús) / Estación 52 (Plaza de Santa Ana)  ,M1  ,Antón Martín (línea 1),0,http://www.madrid.es/sites/v/index.jsp?vgnextchannel=bfa48ab43d6bb410VgnVCM100000171f5a0aRCRD&vgnextoid=4eff8c46145e8110VgnVCM2000000c205a0aRCRD,CALLE CERVANTES 11 28014 MADRID,CORTES,CENTRO,440825,4473983,40.414358466555235,-3.6974741545860015,914 299 216,casamuseolopedevega@madrid.org,Museos
4949641,Casita - Museo del Ratón Pérez,La residencia de la familia Pérez está situada en los sótanos de la confitería Prasi  en el número ocho de la calle del Arenal  según cita Luis Coloma.Venta de entradas a través de whatsapp 634 297 294 Aforo limitado.,Reserva y compra de entradas: de martes a sábado (excepto festivos); de 11 a 14 y de 17 a 20 horas.   Visitas: de martes a viernes; de 11 a 14 y de 17 a 20 horas. Sábados; de 11 a 20 horas. Domingos; de 11 a 18 horas.,NULL,NULL,Estación 31 (calle Mayor 20) Estación 25 a y b (Plaza Celenque 1),3 ,Sol (líneas: 1; 2 y 3) Ópera (línea 3; Ramal Ópera Príncipe Pío) Callao (línea 3; 5) ,3,http://www.madrid.es/sites/v/index.jsp?vgnextchannel=bfa48ab43d6bb410VgnVCM100000171f5a0aRCRD&vgnextoid=990950e86d4ca110VgnVCM2000000c205a0aRCRD,CALLE ARENAL 8 28013 MADRID,SOL,CENTRO,440144,4474287,40.41704834412296,-3.7055288844865233,915 226 968,info@casamuseoratonperez.es,Museos
5682031,Castillo de la Alameda,El Castillo de la Alameda o de Barajas se trata de uno de los escasos vestigios de la arquitectura militar del pasado siglo XV y uno de los pocos castillos que ha sobrevivido al paso del tiempo. Bajo él y su entorno  existen restos de asentamientos antiguos desde la Edad del Bronce hasta la Época Romana.En el edificio se realizan talleres para escolares y actividades en verano.Accesibilidad   Rampas de acceso. Aseos adaptados para personas con movilidad reducida. Información en Braille para personas con discapacidad visual.,Abierto solo en fin de semana (sábado y domingo) y festivos (lunes festivos incluidos)  Del 1 de abril al 15 de junio de 10 a 21 horas. Del 16 de junio al 15 de septiembre de 10 a 20 horas. Del 15 al 30 de septiembre de 10 a 21 horas. De octubre a marzo de 10 a 18 horas.  Cerrado: 1 y 6 de enero; 1 de mayo; 24; 25 y 31 de diciembre.,NULL,NULL,NULL,101; 105; 112; 114; 115 y 151,Alameda de Osuna y El Capricho (línea 5),1.6,http://www.madrid.es/sites/v/index.jsp?vgnextchannel=bfa48ab43d6bb410VgnVCM100000171f5a0aRCRD&vgnextoid=fe43c4be8e688210VgnVCM1000000b205a0aRCRD,CALLE ANTONIO SANCHA 1 28042 MADRID,ALAMEDA DE OSUNA,BARAJAS,449698,4478802,40.45835460563491,-3.5932903820278788,913 667 415,castilloalameda@madrid.es,MonumentosEdificiosArtisticos
2064,Casón del Buen Retiro. Museo Nacional del Prado: Centro de Estudios,Edificio que forma parte del Museo Nacional del Prado  donde pueden consultarse fondos de la Biblioteca  del Archivo y del Servicio de Documentación de la colección del Museo y de otras fuentes relativas a la historia del arte.Descripción monumental  El Casón o Salón de Baile es el único volumen que permanece del antiguo Palacio del buen Retiro  ejecutado en 1637 con un proyecto de Alonso Carbonel. Aún se conserva la bóveda de cañon con lunetas  pintada al fresco por Lucas Jordán en 1692 con la Alegoría del Toisón de Oro. Su fachada principal  a poniente  arrasada la primitiva en 1886 por un ciclón  es de Velázquez Bosco. La última rehabilitación ha sido realizada por Jaime Torruell.,NULL,Montalbán (49) en C/ Montalbán (entre C/ Alfonso XI y P&amp;ordm; Prado),Atocha  ,Estación 65 (calle Antonio Maura 15)  ,19  ,Estación del Arte (Atocha) (línea 1)  ,1,http://www.madrid.es/sites/v/index.jsp?vgnextchannel=bfa48ab43d6bb410VgnVCM100000171f5a0aRCRD&vgnextoid=f0443d0b5e71c010VgnVCM1000000b205a0aRCRD,CALLE ALFONSO XII 28 28014 MADRID,LOS JERONIMOS,RETIRO,441525,4474078,40.415263749471535,-3.689232811717636,NULL,biblioteca@museodelprado.es,MonumentosEdificiosArtisticos
2069,Centro Cultural La Corrala. Museo de Artes y Tradiciones Populares,NULL,Lunes a viernes de 12 a 20 horas. Sábados de 10 a 14 horas. Cerrado domingos; festivos y mes de agosto; 24 y 31 diciembre.,NULL,NULL,Estación 44 (calle Mesón de Paredes 35),17; 18; 23; 35; 60,La Latina (línea 5)  ,3,http://www.madrid.es/sites/v/index.jsp?vgnextchannel=bfa48ab43d6bb410VgnVCM100000171f5a0aRCRD&vgnextoid=5c39ef4d7f71c010VgnVCM1000000b205a0aRCRD,CALLE CARLOS ARNICHES 3 28005 MADRID,EMBAJADORES,CENTRO,439899,4473375,40.40882397197274,-3.708330456274069,914 976 500,museoatp@uam.es / lacorrala@uam.es,Museos
103331,Centro Social y Cultural La Casa Encendida,Edificio de carácter monumental. De estilo neomudéjar  fue diseñado por el arquitecto Fernando Arbós e inaugurado en el año 1913. Cuenta con más de 6000 metros cuadrados de instalaciones divididas en 4 plantas y una azotea.,De martes a domingo de 10 a 22 horas. Cierre de salas de exposiciones 21:45 horas.  Más horarios en la pestaña 'Servicios'.,Garaje Amparo (75) en calle Amparo,Embajadores (línea C5),Estación 49 (ronda de Atocha 34),119; 27; 34; 36; 41; C03; C2; C1,Embajadores (línea 3),1.6,http://www.madrid.es/sites/v/index.jsp?vgnextchannel=bfa48ab43d6bb410VgnVCM100000171f5a0aRCRD&vgnextoid=c27f8899fc81c010VgnVCM1000000b205a0aRCRD,RONDA VALENCIA 2 28012 MADRID,EMBAJADORES,CENTRO,440622,4473051,40.40595710517701,-3.699779793558763,915 062 180,NULL,MonumentosEdificiosArtisticos
6469186,Ermita de San Antonio de la Florida (Museo),Ermita dedicada a San Antonio de Padua y pequeño museo. Las pinturas murales que la decoran son de Francisco de Goya. Alberga los restos mortales del artista desde 1919. Para preservar sus pinturas  en 1929 se trasladó el culto a una ermita gemela construida a su lado  dejando el edificio original como museo.,General   De martes a domingos de 9:30 a 20 horas.   Verano (del 15 de junio al 15 de septiembre)   De martes a domingos de 9:30 a 19 horas.   Cerrado:  lunes (incluidos festivos); 1 y 6 de enero; 1 de mayo; 24; 25 y 31 de diciembre.  Último pase de visita: 20 minutos antes del cierre (el desalojo de las salas comenzará 10 minutos antes) Este horario y la apertura de salas pueden sufrir modificaciones.,NULL,Príncipe Pío  ,Estación 161 (Paseo de la Florida 8),41; 46 y 75 (Intercambiador Príncipe Pío)  ,Príncipe Pío (líneas 5; 10 y ramal Ópera - Príncipe Pío)  ,2.6,http://www.madrid.es/sites/v/index.jsp?vgnextchannel=bfa48ab43d6bb410VgnVCM100000171f5a0aRCRD&vgnextoid=75950204770e7310VgnVCM2000000c205a0aRCRD,GLORIETA SAN ANTONIO DE LA FLORIDA 5 28008 MADRID,CASA DE CAMPO,MONCLOA-ARAVACA,438439,4475212,40.425256682855846,-3.725725718176111,915 420 722 o 683 429 760,sanantonio@madrid.es,MonumentosEdificiosArtisticos
58353,Espacio Fundación Telefónica,NULL,De martes a domingo; de 10 a 20 horas. Cerrado al público todos los lunes y días 25 de diciembre; 1 y 6 de enero.,BARCO 1 (88) en Calle Barco,NULL,Estación 211 (Desengaño 1) / Estación 210 (Tres Cruces 7)  ,002; 001; 1; 2; 46; 74; 146  ,Gran Vía (líneas 1; 5)  ,1,http://www.madrid.es/sites/v/index.jsp?vgnextchannel=bfa48ab43d6bb410VgnVCM100000171f5a0aRCRD&vgnextoid=87748ed67151c010VgnVCM2000000c205a0aRCRD,CALLE FUENCARRAL 3 28004 MADRID,UNIVERSIDAD,CENTRO,440480,4474658,40.42041458612889,-3.7016034186955076,915 808 700 (información general) / 915 226 645 (visitas guiadas y talleres),espacio@fundaciontelefonica.com,Museos
6017808,Fundación AMYC (Arte Moderno y Contemporáneo). Casa Museo Fuente del Rey,NULL,Martes a sábado; de 10 a 19 horas. Lunes; domingos y festivos cerrado. Visitas para grupos de hasta 25 personas dentro de los horarios de apertura. Pueden ser con guía propio o con guía de la Fundación; y la duración de la misma es de una hora; previa reserva telefónica o por email.,NULL,NULL,NULL,161,NULL,3,http://www.madrid.es/sites/v/index.jsp?vgnextchannel=bfa48ab43d6bb410VgnVCM100000171f5a0aRCRD&vgnextoid=5c1260101310f210VgnVCM1000000b205a0aRCRD,CALLE FUENTE DEL REY 11 28023 MADRID,ARAVACA,MONCLOA-ARAVACA,434663,4478596,40.45546180290319,-3.7705836264842576,913 579 116,info@fundacionamyc.org,FundacionesCulturales
5873478,Museo ABC,Centro de arte  dibujo e ilustración.,Consultar.,NULL,NULL,Estación 13 (calle Conde Duque 22),M2; C1; C3; 1; 2; 3; 21; 44; 133; 147; 001; 002   ,San Bernardo (líneas 2; 4) Noviciado (línea 2) Ventura Rodríguez (línea 3) Plaza de España (líneas 3; 10)  ,1,http://www.madrid.es/sites/v/index.jsp?vgnextchannel=bfa48ab43d6bb410VgnVCM100000171f5a0aRCRD&vgnextoid=f0103fee6537c210VgnVCM1000000b205a0aRCRD,CALLE AMANIEL 29 28015 MADRID,UNIVERSIDAD,CENTRO,439813,4475439,40.42741121610518,-3.709539260414957,917 588 379,info_museo@abc.es,Museos
2067,Museo Africano Misioneros Combonianos,NULL,Grupos con cita previa en el teléfono 914 152 412 o en la web: de lunes a viernes de 9:30 a 13:30 horas.  Individuales: Visitas guiadas sin cita previa los domingos a las 11:30 horas.,NULL,NULL,NULL,11; 70; 114; 122; 115; 200,NULL,3,http://www.madrid.es/sites/v/index.jsp?vgnextchannel=bfa48ab43d6bb410VgnVCM100000171f5a0aRCRD&vgnextoid=6ab8ef4d7f71c010VgnVCM1000000b205a0aRCRD,CALLE ARTURO SORIA 101 28043 MADRID,SAN JUAN BAUTISTA,CIUDAD LINEAL,444755,4477849,40.449464654033605,-3.65149172790308,914 152 412,NULL,Museos
2050,Museo Arqueológico Nacional,Fundado en 1867  el MAN se inauguró en 1895 en su actual sede  en el Palacio de Biblioteca y Museos  edificio proyectado por Francisco Jareño y terminado por Antonio Ruiz de Salces.,De martes a sábados de 9:30 a 20 horas. Domingos y festivos de 9:30 a 15 horas.   Cerrado   Todos los lunes del año. 1 y 6 de enero; 1 y 15 de mayo;  24; 25 y 31 de diciembre.  Más información horarios,Colón (2) en Plaza de Colón s/n,Recoletos (línea C1; C2; C7; C-10 y Regional)  ,Estación 95 (calle Claudio Coello 109)  ,1; 9; 19; 51; 74; 5; 14; 27; 45; 53; 150  ,Serrano (línea 4)  ,1,http://www.madrid.es/sites/v/index.jsp?vgnextchannel=bfa48ab43d6bb410VgnVCM100000171f5a0aRCRD&vgnextoid=8fd8ef4d7f71c010VgnVCM1000000b205a0aRCRD,CALLE SERRANO 13 28001 MADRID,RECOLETOS,SALAMANCA,441601,4474966,40.42327763947072,-3.688418705931963,915 777 912,NULL,Museos
2072,Museo Casa de la Moneda,NULL,De martes a viernes ininterrumpidamente de 10 a 20. Sábados; domingos y festivos de 10 a 14:15 horas. Cerrado los lunes (incluidos festivos); y los días 1 de enero;  1 y 2 de mayo;  24; 25 y 31 de diciembre.,NULL,NULL,Estación 101 (calle Jorge Juan 131),143; 2; 30; 56; 71; C2; 28  ,O&amp;acute;Donnell (línea 6) Goya (líneas 2; 4)  ,1.4,http://www.madrid.es/sites/v/index.jsp?vgnextchannel=bfa48ab43d6bb410VgnVCM100000171f5a0aRCRD&vgnextoid=12f8ef4d7f71c010VgnVCM1000000b205a0aRCRD,CALLE DOCTOR ESQUERDO 36 28028 MADRID,GOYA,SALAMANCA,443235,4474878,40.42259797372905,-3.6691502061733674,915 666 544,museocasadelamoneda@fnmt.es,Museos
4112,Museo Cerralbo,Este Palacio  construido entre 1883 y 1893  fue concebido como vivienda y como museo para sede de las obras de arte reunidas por los Marqueses de Cerralbo y sus hijos  los Marqueses de Villa Huerta  durante los numerosos viajes que realizaron por España y Europa.,De martes a sábado de 9:30 a 15 horas. Jueves; apertura extraordinaria por la tarde; de 17 a 20 horas; excepto festivos. Entrada gratuita. Domingos y festivos de 10 a 15 horas. Cerrado: todos los lunes; 1 y 6 de enero; 1 de mayo; 24; 25 y 31 de diciembre; una fiesta local.,NULL,Príncipe Pio (líneas C1; C7 Y C10),Estación 14 (calle Ventura Rodríguez 2),62; 74,Plaza de España (líneas 3; 10) Príncipe Pío (líneas 6 y 10)  ,2.6,http://www.madrid.es/sites/v/index.jsp?vgnextchannel=bfa48ab43d6bb410VgnVCM100000171f5a0aRCRD&vgnextoid=a4efb0c40971c010VgnVCM1000000b205a0aRCRD,CALLE VENTURA RODRIGUEZ 17 28008 MADRID,ARGUELLES,MONCLOA-ARAVACA,439380,4475039,40.42376732078657,-3.7146170388153497,915 473 646 / 915 473 647,museo.cerralbo@cultura.gob.es,Museos
10091450,Museo EMT,El Museo de la EMT se ha convertido en realidad tras una década de duro trabajo de recuperación  restauración y reparación del patrimonio histórico de la Empresa Municipal de Transportes de Madrid  especialmente  material móvil  mobiliario  piezas mecánicas  maquinaria y otros elementos inherentes a la actividad de la EMT en sus 70 años de historia.,Visitas (con cita previa)  Apertura estacional durante seis meses al año: todos los sábados de abril; mayo; junio; julio; septiembre y octubre); a las 10; a las 11:30 y a las 13 horas. Por ser un centro de trabajo únicamente pueden realizarse de forma organizada; previamente concertadas y limitadas a un máximo de 40 personas por turno. Duración: 60 minutos aproximadamente. Compra de entradas y reserva de horarios a través de la web: http://tienda.emtmadrid.es (a partir del 1 de marzo de 2018).,NULL,NULL,NULL,66; 173; 174; 176; 191; 193; 194; 195; 196; 197; 712; 713; 714; 716; L171,Begoña (línea 10),0,http://www.madrid.es/sites/v/index.jsp?vgnextchannel=bfa48ab43d6bb410VgnVCM100000171f5a0aRCRD&vgnextoid=d56ad05b2a255510VgnVCM2000001f4a900aRCRD,CALLE MAURICIO LEGENDRE 40 28046 MADRID,CASTILLA,CHAMARTIN,442096,4481278,40.480173612860305,-3.6831595451893273,914 068 810,NULL,OrganismosEmpresasMunicipales
10237457,Museo Félix Cañada,Una selección de más de quinientas obras de arte de entre las cerca de mil de la donación original  constituyen la Colección Permanente que se puede visitar en las salas del Museo Félix Cañada de la Fundación Gómez Pardo  adscrita a la Escuela Técnica Superior de Ingenieros de Minas y Energía de la Universidad Politécnica de Madrid. Donada por el ingeniero de minas Doctor Félix Cañada Guerrero a la Fundación Gómez Pardo  reúne una amplia representación de trabajos de destacados artistas  pintores  escultores  ilustradores  grabadores  orfebres  ceramistas  etc. abarcando diferentes periodos desde el siglo XI hasta nuestros días.,Lunes; miércoles y viernes; de 10 a 13 horas; previa solicitud descargando el impreso en formato PDF y enviarlo cumplimentado a museo@fgomezpardo.es o bien mediante fax al 91 442 95 29. .,NULL,NULL,Estación 130 (calle Santa Engracia 127),45; 12; 149; 3; 37,Rios Rosas (línea 1),3,http://www.madrid.es/sites/v/index.jsp?vgnextchannel=bfa48ab43d6bb410VgnVCM100000171f5a0aRCRD&vgnextoid=cb22820a52799510VgnVCM1000001d4a900aRCRD,CALLE ALENZA 1 28003 MADRID,RIOS ROSAS,CHAMBERI,440568,4477117,40.442581673356834,-3.700796192332983,914 417 921,museo@fgomezpardo.es,Museos
2074,Museo Geominero,Los objetivos del Museo Geominero son conservar  investigar y difundir la riqueza y diversidad del patrimonio geológico  paleontológico y mineralógico a través de las importantes colecciones de minerales  rocas y fósiles procedentes de todas las regiones españolas y de antiguos territorios coloniales  así como de yacimientos significados del registro mundial,De lunes a domingo y festivos de 9 a 14 horas. Cerrado los días 1 y 6 de enero y 24; 25 y 31 de diciembre.,NULL,NULL,Estación 130 (calle Santa Engracia 127),45; 12; 149; 3; 37; 5,Ríos Rosas (línea 1) y Alonso Cano (línea 7),3,http://www.madrid.es/sites/v/index.jsp?vgnextchannel=bfa48ab43d6bb410VgnVCM100000171f5a0aRCRD&vgnextoid=ff0bef4d7f71c010VgnVCM1000000b205a0aRCRD,CALLE RIOS ROSAS 23 28003 MADRID,RIOS ROSAS,CHAMBERI,440663,4477057,40.442047952073665,-3.699670468881422,913 495 759,m.geominero@igme.es,Museos
2075,Museo Histórico Minero Don Felipe de Borbón y Grecia,Ubicado en la Escuela Técnica Superior de Ingenieros de Minas de Madrid,De lunes a viernes; de 9 a 14 horas.,NULL,NULL,Estación 130 (calle Santa Engracia 127),3; 12; 37; 45; 149  ,Ríos Rosas (línea 1)  ,3,http://www.madrid.es/sites/v/index.jsp?vgnextchannel=bfa48ab43d6bb410VgnVCM100000171f5a0aRCRD&vgnextoid=822bef4d7f71c010VgnVCM1000000b205a0aRCRD,CALLE RIOS ROSAS 21 28003 MADRID,RIOS ROSAS,CHAMBERI,440603,4477062,40.44207963042673,-3.7003900716027776,913 367 017,NULL,Museos
18176,Museo ICO,NULL,De martes a sábados: de 11 a 20 horas.   Domingos y festivos: de 10 a 14 horas.    Cerrado: Todos los lunes del año.   Horarios especiales: 24 y 31 de diciembre de 10 a 14 horas. 1 de mayo y 25 de diciembre cerrado.,NULL,NULL,estación 28 (calle Alcalá 27),53; 15; 20; M1; 150; 5; 46; 52,Sevilla (línea 2),1,http://www.madrid.es/sites/v/index.jsp?vgnextchannel=bfa48ab43d6bb410VgnVCM100000171f5a0aRCRD&vgnextoid=2886444a2951c010VgnVCM2000000c205a0aRCRD,CALLE ZORRILLA 3 28014 MADRID,CORTES,CENTRO,440806,4474249,40.41675330128869,-3.6977346235068373,914 201 242,museoico@ico.es,Museos
6019032,Museo Los Caños del Peral. Estación de Metro Ópera,La estación de Ópera cuenta con el mayor museo arqueológico bajo tierra de Madrid  un espacio de 200 m2 donde se pueden ver restos arqueológicos de los siglos XVI y XVII pertenecientes a la Fuente de los Caños del Peral  el Acueducto de Amaniel y la Alcantarilla del Arenal.,Previa reserva en la página museosmetromadrid.es.  Viernes: de 16:00 a 20:00 horas. Sábados: de 10:00 a 14:00 horas y de 16:00 a 20:00 horas. Domingos: de 10:00 a 14:00 horas.,Descalzas (20) en plaza Descalzas y plaza San Martín,NULL,Estación 24 (calle Carlos III 1),NULL,Ópera (líneas 2; 5 y Ramal),1,http://www.madrid.es/sites/v/index.jsp?vgnextchannel=bfa48ab43d6bb410VgnVCM100000171f5a0aRCRD&vgnextoid=435950262d50f210VgnVCM2000000c205a0aRCRD,PLAZA ISABEL II 1 28013 MADRID,PALACIO,CENTRO,439834,4474367,40.41775560280743,-3.709202070089538,NULL,NULL,Museos
2053,Museo Lázaro Galdiano,NULL,Martes a domingo; de 9:30 a 15 horas. Lunes cerrado.,NULL,NULL,NULL,12; 16; 9; 19; 51; 61,Gregorio Marañón (línea 7 y 10)  ,1,http://www.madrid.es/sites/v/index.jsp?vgnextchannel=bfa48ab43d6bb410VgnVCM100000171f5a0aRCRD&vgnextoid=7d1aef4d7f71c010VgnVCM1000000b205a0aRCRD,CALLE SERRANO 122 28006 MADRID,CASTELLANA,SALAMANCA,441802,4476460,40.436750328725985,-3.6861980129207894,915 616 084,NULL,MonumentosEdificiosArtisticos
5349304,Museo Nacional Centro de Arte Reina Sofía (MNCARS),Edificio Sabatini: calle Santa Isabel 52.  Edificio Nouvel (ampliación): ronda de Atocha  esquina a plaza del Emperador Carlos V.  Espacios en el parque del Retiro: Palacio de Velázquez y Palacio de Cristal.,Lunes y de miércoles a sábado; de 10 a 20 horas. Martes cerrado (incluso festivos). Domingos de 10 a 14:30 horas.  Cerrado: 1 y 6 enero; 1 y 15 mayo; 9 noviembre; 24; 25 y 31 diciembre.,Sánchez ,Atocha (líneas C1; C2; C3; C4; C5; C7; C8; C10)  ,Estación 50 (calle Santa Isabel 57) / Estación 51 (Ronda de Atocha 2)  ,27; 34; C03; C1; 26; 32; 6; 59; 85; E1; C2; 119; 36; 41; 001; 10; 14; 37; 45  ,Estación del Arte (Atocha) (línea 1)  ,1,http://www.madrid.es/sites/v/index.jsp?vgnextchannel=bfa48ab43d6bb410VgnVCM100000171f5a0aRCRD&vgnextoid=69d8275bad5a1210VgnVCM2000000c205a0aRCRD,CALLE SANTA ISABEL 52 28012 MADRID,EMBAJADORES,CENTRO,441112,4473334,40.40854131574014,-3.6940316511856017,917 741 000 / 917 911 330 (Centro atención visitante),museoreinasofia@clorian.com,Museos
2099,Museo Nacional Thyssen-Bornemisza,El palacio donde se ubica la colección fue el antiguo palacio del duque de Villahermosa. Edificación neoclásica. Posteriormente se adapta como entidad bancaria perdiento sus espacios interiores. Más tarde  pasó a formar parte de los edificios del Museo del Prado. Desde principios de los 90 alberga la Colección Thyssen. El museo ofrece un recorrido por la historia de la pintura europea desde sus inicios en el siglo XIII  hasta finales del siglo XX.Arquitecto: Antonio López Aguado (1805 - 1806)  Adecuación: Rafael Moneo (1989 - 1992)  Ampliación: BOPBAA (1999 - 2004),Colecciones permanentes:  lunes de 12 a 16 horas (acceso gratuito gracias al patrocinio de MasterCard). Martes a domingos de 10 a 19 horas.   Exposiciones temporales: consultar horario específico en Museo.  Avisos y aperturas extraordinarias: los días 1 de enero; 1 de mayo y 25 de diciembre el Museo permanecerá cerrado. El 24 y el 31 de diciembre el horario de apertura del Museo será de 10 a 15 horas.,Cortes (46) en Plaza de las Cortes,Recoletos  ,Estación 27 (calle Jesús 1) / Estación 29 (calle Marqués de Cubas 25)  ,10; 14; 27; 34; 37; 45; C03  ,Banco de España (línea 2)  ,1,http://www.madrid.es/sites/v/index.jsp?vgnextchannel=bfa48ab43d6bb410VgnVCM100000171f5a0aRCRD&vgnextoid=0b8079262ef5d010VgnVCM1000000b205a0aRCRD,PASEO PRADO 8 28014 MADRID,CORTES,CENTRO,441058,4474164,40.41600553697803,-3.694744831131079,917 911 370,cav@museothyssen.org,MonumentosEdificiosArtisticos
2057,Museo Nacional de Antropología,El Museo está instalado en el edificio de estilo clasicista construido por el Marqués de Cubas en 1875 por encargo del Doctor González Velasco  fundador de la institución.,De martes a sábado de 9:30 a 20 horas. Domingos: de 10 a 15 horas. Cerrado todos los lunes del año y los días 1 y 6 de enero; 1 de mayo; 24; 25 y 31 de diciembre y un festivo local. La taquilla se cerrará 15 minutos antes del cierre.,NULL,Atocha (líneas C1; C2; C3; C4; C5; C7; C8; C10),Estación 80 a y b (paseo Infanta Isabel 3),19;  C1; 10; 14; 26; 32; 102; 37; 59; 001; C2; 203; 85; 141,Estación del Arte (línea 1),1.6,http://www.madrid.es/sites/v/index.jsp?vgnextchannel=bfa48ab43d6bb410VgnVCM100000171f5a0aRCRD&vgnextoid=456079262ef5d010VgnVCM1000000b205a0aRCRD,CALLE ALFONSO XII 68 28014 MADRID,LOS JERONIMOS,RETIRO,441550,4473258,40.407887537677716,-3.688862923660605,915 306 418 / 915 395 995,antropologico@cultura.gob.es,Museos
2055,Museo Nacional de Artes Decorativas,Inaugurado en 1912  su sede es un típico palacete madrileño del último tercio del siglo XIX. El museo posee muebles  cerámicas  vidrios  joyas  tejidos  arte oriental  y hasta 30 000 objetos distintos que a lo largo de la historia han servido para embellecer las casas  palacios y los monumentos de distintas culturas. El museo posee muestras como el Jarrón de Sevres regalo de Napoleón III  la Cocina Valenciana del siglo XVIII compuesta por más de 1500 azulejos de Manises  la Mesa de plata del siglo XVI o la colección de alfombras españolas de los siglos XV al XVII.El Museo dispone de una rampa de acceso al edificio en la calle Montalbán. Para su uso  es necesario avisar con antelación al personal del Museo.El acceso a las diferentes plantas  puede realizarse mediante ascensor. Debido a las dimensiones del mismo  es necesario emplear en él las sillas de ruedas que el Museo pone a su disposición  previa solicitud.,Martes a sábados de 9:30 a 15 horas. Domingo y festivos: de 10 a 15 horas. Jueves tarde de 17 a 20 horas (excepto julio y agosto).  Cerrado:  todos los lunes; 1 y 6 de enero; 1 y 15 de mayo; 24; 25 y 31 de diciembre.    La venta de entradas finalizará 30 minutos antes del cierre.,Montalbán (49) en C/ Montalbán (entre C/ Alfonso XI y P&amp;ordm; Prado),Recoletos (líneas C1; C2; C7; C8 Y C10),Estaciones 65 (calle Antonio Maura 15) y 60 (plaza de la Independencia 6),19; 1; 146; 15; 2; 20; 51; 52; 74; 9; E1; 203; 14; 27; 37; 45,Retiro (línea 2),2.6,http://www.madrid.es/sites/v/index.jsp?vgnextchannel=bfa48ab43d6bb410VgnVCM100000171f5a0aRCRD&vgnextoid=287079262ef5d010VgnVCM1000000b205a0aRCRD,CALLE MONTALBAN 12 28014 MADRID,LOS JERONIMOS,RETIRO,441483,4474369,40.417891279015194,-3.689754685481908,915 326 499 / 915 326 845 / 910 505 755 (Reserva actividades infantiles) / 910 505 768 (Biblioteca) / 910 505 763 (Atención a investigadores),mnad@cultura.gob.es,MonumentosEdificiosArtisticos
2056,Museo Nacional de Ciencias Naturales,NULL,De martes a viernes de 10 a 17 horas. Sábados; domingos y festivos de 10 a 20 horas. Agosto;de 10 a 15 horas. Cerrado los lunes (excepto los festivos). Cerrado el 1 y 6 de enero; el 1 de mayo y el 25 de diciembre. Los días 24 y 31 de diciembre el museo permanecerá abierto de 10 a 15 horas.,NULL,NULL,Estación 139 (Calle José Gutiérrez Abascal 2),12; 45; 14; 147; 150; 27; 40; 7,Gregorio Marañón (líneas 7; 10),1.6,http://www.madrid.es/sites/v/index.jsp?vgnextchannel=bfa48ab43d6bb410VgnVCM100000171f5a0aRCRD&vgnextoid=8edbef4d7f71c010VgnVCM1000000b205a0aRCRD,CALLE JOSE GUTIERREZ ABASCAL 2 28006 MADRID,EL VISO,CHAMARTIN,441463,4476870,40.44042007613476,-3.690220716379925,NULL,NULL,MonumentosEdificiosArtisticos
2076,Museo Naval,Temática: Historia de la navegación española.,De martes a domingo de 10 a 19 horas. Durante el mes de agosto; horario reducido de 10 a 15 horas. El desalojo del museo se hará entre 15 y 30 min antes del cierre; dependiendo de las personas que haya en las salas y de las normas en vigor por la COVID-19. El museo en su totalidad o alguna de sus salas podrán cerrarse de manera excepcional fuera de estas fechas; comunicándose al público con la debida antelación.,Montalbán (49) en calle Montalbán entre calle Alfonso XI y paseo del Prado,NULL,Estación 86 (plaza de Cibeles),E1; 14; 27; 37; 45; C03; 203; 001; 34; 1; 146; 15; 2; 20; 51; 52; 74; 9,Banco de España (línea 2),1,http://www.madrid.es/sites/v/index.jsp?vgnextchannel=bfa48ab43d6bb410VgnVCM100000171f5a0aRCRD&vgnextoid=a30cef4d7f71c010VgnVCM1000000b205a0aRCRD,PASEO PRADO 5 28014 MADRID,LOS JERONIMOS,RETIRO,441227,4474329,40.41751289873052,-3.692768317427539,915 238 516 (lunes a viernes; de 9 a 14 horas),museonavalmadrid@fn.mde.es y reservas_museonaval@fn.mde.es,Museos
2085,Museo Postal y Telegráfico,El  Museo Postal y Telegráfico ofrece al visitante un recorrido temático y cronológico a través  de la historia de las comunicaciones  desde la más tradicional  la carta  hasta las comunicaciones por satélite. En este museo se conservan y exhiben los fondos postales y de telecomunicación desde los primeros hitos conocidos hasta nuestros días.,De lunes a viernes de 9 a 14 y de 16 a 18 horas.,NULL,NULL,NULL,NULL,NULL,3,http://www.madrid.es/sites/v/index.jsp?vgnextchannel=bfa48ab43d6bb410VgnVCM100000171f5a0aRCRD&vgnextoid=c82cef4d7f71c010VgnVCM1000000b205a0aRCRD,CALLE TAPIA DE CASARIEGO 6 28023 MADRID,VALDEMARIN,MONCLOA-ARAVACA,434802,4479955,40.467706026917405,-3.7690721403206724,917 401 440 / 917 400 668,info@museopostalytelegrafico.com,Museos
4997114,Museo Sorolla,NULL,De martes a sábado: de 9:30 a 20 horas  Domingos y festivos: de 10 a 15 horas Cerrado: todos los lunes del año; 1 de enero; 6 de enero; 1 de mayo; 9 noviembre; 24; 25 y 31 de diciembre,NULL,NULL,NULL,16; 5; 61; 147; 40; 7,Rubén Darío (línea 5) Gregorio Marañón (líneas 7; 10) Iglesia (línea 1)  ,3,http://www.madrid.es/sites/v/index.jsp?vgnextchannel=bfa48ab43d6bb410VgnVCM100000171f5a0aRCRD&vgnextoid=6dd05e93aad9c110VgnVCM1000000b205a0aRCRD,PASEO GENERAL MARTINEZ CAMPOS 37 28010 MADRID,ALMAGRO,CHAMBERI,441281,4476335,40.43557863874977,-3.6923288211390055,913 101 584,museo.sorolla@cultura.gob.es,Museos
2077,Museo Taurino de la Comunidad de Madrid,Situado en el Patio de Caballos  ofrece a sus visitantes un atractivo recorrido por la historia del toreo  demostrando la relevancia de la Tauromaquia en la historia y la cultura de España. De acceso gratuito  octavo monumento más visitado en la Comunidad de Madrid  en este espacio se pueden contemplar grabados de Goya  vestidos  monteras y capotes de paseo de grandes toreros del siglo XX o un rincón dedicado a la figura de Manolete.,De lunes a domingo; de 10 a 15 horas.,NULL,NULL,Estación 187 (calle Alejandro González 1),106; 110; 146; 21; 210; 38; 53,Ventas (líneas 2; 5),3,http://www.madrid.es/sites/v/index.jsp?vgnextchannel=bfa48ab43d6bb410VgnVCM100000171f5a0aRCRD&vgnextoid=958cef4d7f71c010VgnVCM1000000b205a0aRCRD,CALLE ALCALA 237 28028 MADRID,GUINDALERA,SALAMANCA,443775,4475871,40.43157110306013,-3.662872780933851,912 761 287,museotaurinolasventas@madrid.org,Museos
2101,Museo Tiflológico,Edificio con una superficie de 1.500 m2 dividido en tres zonas con maquetas de monumentos nacionales e internacionales realizadas por invidentes e instrumentos utilizados por los invidentes desde hace 200 años. Es un espacio concebido para que sus visitantes puedan ver y tocar las piezas expuestas.,Martes a viernes; de 10 a 15 horas y de 16 a 19 horas. Sábados de 10 a 14 horas. Cerrado: lunes; domingos y festivos. Consultar cierres especiales en http://museo.once.es,NULL,NULL,NULL,66; 124; 126,Estrecho (línea 1)  ,1,http://www.madrid.es/sites/v/index.jsp?vgnextchannel=bfa48ab43d6bb410VgnVCM100000171f5a0aRCRD&vgnextoid=baacef4d7f71c010VgnVCM1000000b205a0aRCRD,CALLE LA CORUÑA 18 28020 MADRID,CUATRO CAMINOS,TETUAN,440631,4478517,40.45519790204094,-3.7001960485997545,915 894 219,museo@once.es,Museos
2068,Museo de Aeronáutica y Astronáutica,El museo tiene por finalidad la adquisición  conservación y exposición de los bienes que constituyen el Patrimonio Histórico de la Aeronáutica Española. Dispone de una exposición exterior y siete hangares que albergan aeronaves  uniformes  condecoraciones  motores  maquetas y otros fondos relacionados con la aviación. Terminada la Guerra Civil y una vez creado el Ejército del Aire  se concibe la idea de crear un museo que reflejara la evolución e historia de nuestra aeronáutica. Desde 1975 el Museo está en Cuatro Vientos y se han sucedido varias ampliaciones que le convierten en un referente europeo de la aeronáutica.,De martes a domingo de 10 a 14 horas.  El aforo está actualmente limitado; siendo obligatoria la reserva online a través de la página de Reserva de visita al Museo.,NULL,NULL,NULL,NULL,NULL,3,http://www.madrid.es/sites/v/index.jsp?vgnextchannel=bfa48ab43d6bb410VgnVCM100000171f5a0aRCRD&vgnextoid=90aaef4d7f71c010VgnVCM1000000b205a0aRCRD,AUTOVIA A-5 10.7 28024 MADRID,CUATRO VIENTOS,LATINA,432238,4469498,40.37362,-3.80843,915 091 690,museodelaire@ea.mde.es,Museos
2091,Museo de América,NULL,Horario:   De martes a sábado; de 9:30 a 15 horas. Jueves; apertura continuada de 9:30 a 19 horas. Domingos y festivos de 10 a 15 horas.,NULL,NULL,Estación 128 (calle Cea Bermúdez 59),138; 62; 1; 132; 44; 82; C2; C1  ,Moncloa (líneas 3; 6) Islas Filipinas (línea 7)  ,1.6,http://www.madrid.es/sites/v/index.jsp?vgnextchannel=bfa48ab43d6bb410VgnVCM100000171f5a0aRCRD&vgnextoid=c929ef4d7f71c010VgnVCM1000000b205a0aRCRD,AVENIDA REYES CATOLICOS 6 28040 MADRID,CIUDAD UNIVERSITARIA,MONCLOA-ARAVACA,438777,4476615,40.43792950973577,-3.72186494128936,915 492 641 / 915 439 437,museo.america@mecd.es,Museos
83922,Museo de Arte Contemporáneo de Madrid,Al igual que otros museos de arte contemporáneo  nacionales o extranjeros  se ha utilizado un edificio histórico para albergar las colecciones: el Cuartel del Conde Duque. El Museo de Arte Contemporáneo recupera para los madrileños el despacho del escritor vanguardista Ramón Gómez de la Serna  como parte de su colección permanente.,De martes a viernes / Tuesday to Friday:  mañanas de 10 a 14 horas tardes de 15 a 21:00 horas    Sábados/ Saturday   mañanas de 10 a 14 horas tardes de 17:30 a 21:00 horas   Domingos y festivos/ Sunday &amp;amp; Holidays: 10:30 a 14:30 horas       Cierres: Todos los lunes /Every Monday; 1 y 6 de enero/January; 1 de mayo/ May; 24; 25 y 31 de diciembre/ December. Las salas se desalojan 15 minutos antes del cierre/ Gallery will be clear 15 minutes before closing.,Plaza de España,NULL,Estación 13 Calle Conde Duque n&amp;ordm;22,1; 2; 21; 44; 74; 133; C; M2  ,Ventura Rodríguez; Plaza de España; San Bernardo; Noviciado,1.6,http://www.madrid.es/sites/v/index.jsp?vgnextchannel=bfa48ab43d6bb410VgnVCM100000171f5a0aRCRD&vgnextoid=84a55c2cdc41c010VgnVCM2000000c205a0aRCRD,CALLE CONDE DUQUE 9 28015 MADRID,CENTRO,CENTRO,439723,4475437,40.42737760210632,-3.7106116887809817,Teléfono de sala: 914 801 766,mmacmdifusion@madrid.es,Museos
2092,Museo de Astronomía y Geodesia,El museo de Astronomía y Geodesia  situado en la Facultad de Ciencias Matemáticas de la Universidad Complutense de Madrid  agrupa una importante colección de instrumentos de Astronomía  Geodesia y Topografía  reunidos con el afán didáctico de dar a conocer la evolución de los métodos utilizados en estas disciplinas durante los últimos 150 años.,Visita con cita previa.,NULL,NULL,Estación 260 (calle José Antonio Novais frente al número 12),132; F; 82; G; U,NULL,3,http://www.madrid.es/sites/v/index.jsp?vgnextchannel=bfa48ab43d6bb410VgnVCM100000171f5a0aRCRD&vgnextoid=ee49ef4d7f71c010VgnVCM1000000b205a0aRCRD,PLAZA CIENCIAS 3 28040 MADRID,CIUDAD UNIVERSITARIA,MONCLOA-ARAVACA,438419,4477894,40.44942472705852,-3.7262214898219117,913 944 615 / 913 944 583,astronomia_geodesia@mat.ucm.es,Museos
5727435,Museo de Bomberos de Madrid,Abierto al público en 1982  reúne todos los instrumentos usados por los bomberos durante más de cuatro siglos.    Accesible                           Entrada gratuita     Visita para grupos            Apropiado para niños y niñas,Visitas Guiadas   Debido al cierre por obras de esta instalación; quedan suspendidas las visitas.,NULL,NULL,NULL,141 y 143,L1- Buenos Aires ,1,http://www.madrid.es/sites/v/index.jsp?vgnextchannel=bfa48ab43d6bb410VgnVCM100000171f5a0aRCRD&vgnextoid=9f0966a8bba49210VgnVCM2000000c205a0aRCRD,CALLE BOADA 4 28038 MADRID,NUMANCIA,PUENTE DE VALLECAS,444504,4471753,40.39453171263195,-3.6539313207612207,NULL,jcbomberos@madrid.es,Museos
2090,Museo de Calcografía Nacional,Reúne un extraordinario conjunto de planchas grabadas por los más significados artistas españoles  hasta conformar una de las mayores y mejores colecciones de matrices calcográficas del mundo. Su principal tesoro son las planchas de cobre grabadas al aguafuerte por Francisco de Goya  obras cumbres de la historia universal del grabado.,Abierto con el mismo horario que la exposición temporal. En ausencia de exposiciones temporales; consultar en la taquilla del museo; telefónicamente o en la web.,Sevilla (41) en calle Sevilla y calle Alcalá,Sol (líneas C3 y C4),Estaciones 1a y 1b (Puerta del Sol 1) y 28 (calle Alcalá 27),002; 15; 150; 20; 5; 53; M1; 51; 46; 146,Sol (líneas 1; 2; 3) Sevilla (línea 2),3,http://www.madrid.es/sites/v/index.jsp?vgnextchannel=bfa48ab43d6bb410VgnVCM100000171f5a0aRCRD&vgnextoid=7169ef4d7f71c010VgnVCM1000000b205a0aRCRD,CALLE ALCALA 13 28014 MADRID,SOL,CENTRO,440667,4474557,40.41764548040709,-3.700667044636178,915 240 864,calcografianacional.archivo@rabasf.org,Museos
2084,Museo de Cera,NULL,Horario de verano (Mayo a Septiembre)  Taquilla: 11 a 20 horas Público:  11 a 20:30 horas  Horario de invierno (Octubre a Abril)  Taquilla: de 11 a 18:30 horas Público: de 11 a 19 horas,Colón (2) en Plaza de Colón s/n,Recoletos (líneas C1; C2; C7; C10)  ,Estación 10 (Calle Marqués de la Ensenada 16)  ,14; 150; 27; 45; 5; 53; 21; 37  ,Colón (línea 4)  ,2,http://www.madrid.es/sites/v/index.jsp?vgnextchannel=bfa48ab43d6bb410VgnVCM100000171f5a0aRCRD&vgnextoid=9689ef4d7f71c010VgnVCM1000000b205a0aRCRD,PASEO RECOLETOS 41 28004 MADRID,JUSTICIA,CENTRO,441347,4475094,40.424403779665376,-3.6914362030084815,913 199 330,info@museoceramadrid.com,Museos
2071,Museo de Escultura al Aire Libre de la Castellana,El Museo de Escultura al Aire Libre de La Castellana  está situado bajo el paso elevado que une las calles de Juan Bravo y Eduardo Dato  contiene una excelente colección de escultura abstracta española.,Entrada libre. Espacio urbano abierto Abierto 24 horas al día los 365 días del año.,NULL,NULL,Estación 142 (Paseo de la Castellana n&amp;ordm;42),5; 14; 27; 45; 150  ,Rubén Darío (línea 5)  ,0,http://www.madrid.es/sites/v/index.jsp?vgnextchannel=bfa48ab43d6bb410VgnVCM100000171f5a0aRCRD&vgnextoid=eca9ef4d7f71c010VgnVCM1000000b205a0aRCRD,PASEO CASTELLANA 40 28046 MADRID,CASTELLANA,SALAMANCA,441678,4476070,40.433219398671156,-3.6876122680805956,915 885 921,mmacmdifusion@madrid.es,MonumentosEdificiosArtisticos
2054,Museo de Historia de Madrid,Fue creado como museo municipal en 1929 y rebautizado como Museo de Historia de Madrid en 2007. En el año 2014 se hace una profunda remodelación y reabre sus puertas con un montaje moderno y una puesta al día de sus colecciones.Accesibilidad física:   Rampa de acceso a la entrada. Ascensores. Aseos adaptados. Silla de ruedas.,De martes a domingos de 10 a 20 horas.  Verano: de martes a domingos de 10 a 19 horas.  Cerrado: lunes y los días 1 y 6 de enero; 1 de mayo;  24; 25 y 31 de diciembre.   El desalojo de las salas se hará diez minutos antes del cierre.,Barceló,NULL,Estación 54 (Calle Barceló 7) ,3; 21; 37; 40; 147 y 149,Tribunal; Bilbao y Alonso Martínez,1.6,http://www.madrid.es/sites/v/index.jsp?vgnextchannel=bfa48ab43d6bb410VgnVCM100000171f5a0aRCRD&vgnextoid=8f3079262ef5d010VgnVCM1000000b205a0aRCRD,CALLE FUENCARRAL 78 28004 MADRID,JUSTICIA,CENTRO,440550,4475251,40.42577054821346,-3.700845660719608,917 011 863,smuseosm@madrid.es,MonumentosEdificiosArtisticos
4545827,Museo de Historia de la Comunidad Judía de Madrid,NULL,NULL,NULL,NULL,Estación 246 (calle Santa Engracia 87),16; 61; 3; 37; 149,Iglesia (línea 1),1,http://www.madrid.es/sites/v/index.jsp?vgnextchannel=bfa48ab43d6bb410VgnVCM100000171f5a0aRCRD&vgnextoid=8f2a4a659ee71110VgnVCM1000000b205a0aRCRD,CALLE BALMES 3 28010 MADRID,TRAFALGAR,CHAMBERI,440629,4476313,40.43534317115623,-3.700013620203689,915 913 131,info@cjmadrid.org,Museos
2095,Museo de Mineralogía,Presenta colecciones de minerales clasificados por su composición química y vitrinas murales con ejemplares de exhibición procedentes de todo el mundo.,Martes; miércoles y jueves; de 12:30 a 14:30 horas Visitas guiadas o a otras horas; concertando previamente en el teléfono 913 974 132.,NULL,Cantoblanco Universidad,NULL,NULL,NULL,3,http://www.madrid.es/sites/v/index.jsp?vgnextchannel=bfa48ab43d6bb410VgnVCM100000171f5a0aRCRD&vgnextoid=255aef4d7f71c010VgnVCM1000000b205a0aRCRD,CALLE FRANCISCO TOMAS Y VALIENTE 7 28049 MADRID,EL GOLOSO,FUENCARRAL-EL PARDO,441133,4488524,40.54537941407227,-3.6951833197962536,914 974 132 / 914 974 800,museo.mineralogia@uam.es,Museos
2112,Museo de San Isidro. Los Orígenes de Madrid,Este espacio museográfico propone un viaje por la historia de la ciudad de Madrid desde la Prehistoria hasta el establecimiento de la Corte  a través de distintas salas como la de San Isidro  el Patio renacentista  el Jardín arqueobotánico o el Almacén visitable.,De martes a domingo y festivos de 10 a 20 horas.  Último pase de visita 15 minutos antes del cierre.    Verano; del 16 de junio al 15 de septiembre: de martes a domingo de 10 a 19 horas.  Cerrado todos los lunes; el 1 y 6 de enero; el 1 de mayo y los días 24; 25 y 31 de diciembre.,NULL,NULL,Estación 38 (Carrera de San Francisco 1),3 ; 17 ; 18 ; 23 ; 35 ; 60 ; 65 ; 148 ,Latina ; Tirso de Molina ,2.6,http://www.madrid.es/sites/v/index.jsp?vgnextchannel=bfa48ab43d6bb410VgnVCM100000171f5a0aRCRD&vgnextoid=7b7aef4d7f71c010VgnVCM1000000b205a0aRCRD,PLAZA SAN ANDRES 1 28005 MADRID,PALACIO,CENTRO,439691,4473738,40.41207900253883,-3.7108161027466378,913 667 415,museosanisidro@madrid.es,Museos
85301,Museo de Sanidad e Higiene Pública,Con sede en el Instituto de Salud Carlos III  ocupa las antiguas dependencias del Laboratorio de Microbiología del Hospital del Rey. 300 m2 conservados tal cual su antiguo uso  con fondos de mobiliario  instrumental y bibliografía de los antiguos hospitales para enfermos infecciosos del complejo. Se resaltan hitos históricos relevantes en salud pública mediante láminas enmarcadas.,Sólo visitas de grupo con cita previa: de lunes a viernes laborables; de 10 a 14 horas.,NULL,Chamartín,NULL,134; 137  ,Chamartín (líneas 1; 10) Plaza de Castilla (1; 9; 10)  ,3,http://www.madrid.es/sites/v/index.jsp?vgnextchannel=bfa48ab43d6bb410VgnVCM100000171f5a0aRCRD&vgnextoid=3e755c2cdc41c010VgnVCM2000000c205a0aRCRD,AVENIDA MONFORTE DE LEMOS 5 28029 MADRID,LA PAZ,FUENCARRAL-EL PARDO,441508,4480761,40.47546597881768,-3.6900603941123107,918 222 414,museodesanidad@iscii.es,Museos
4591873,Museo de la Biblioteca Nacional de España,El Museo de la Biblioteca Nacional de España  antiguo Museo del Libro  es responsable de la oferta educativa  formativa  cultural y de ocio de la institución y divulga las colecciones  funcionamiento e historia de la Biblioteca para todos los públicos.,Temporalmente cerrado. Consultar calendario de cierre.,Colón (2) en plaza de Colón,Recoletos (líneas C1; C2; C7; C8  y C10),Estación 94 (Paseo Recoletos 20)  ,14; 150; 27; 37; 45; 5; 53; C03,Colón; (línea 4) Retiro (Línea 2)  ,1,http://www.madrid.es/sites/v/index.jsp?vgnextchannel=bfa48ab43d6bb410VgnVCM100000171f5a0aRCRD&vgnextoid=05920d3b4c503110VgnVCM2000000c205a0aRCRD,PASEO RECOLETOS 20 28001 MADRID,RECOLETOS,SALAMANCA,441395,4474937,40.423001908945956,-3.69084423390357,915 168 967 / 915 807 759 de lunes a viernes de 9 a 14 horas.,museo@bne.es,Museos
4566286,Museo de la Catedral de la Almudena,Imprescindible reserva previa en  reservasmuseo@catedraldelaalmudena.es o teléfono 915 592 874,De lunes a sábado de 10 a 14:30 horas. Cerrado los domingos; fiestas de precepto y días de actos de culto especiales en la Catedral.,NULL,NULL,Estación 36 (plaza Ramales 1),3,NULL,1,http://www.madrid.es/sites/v/index.jsp?vgnextchannel=bfa48ab43d6bb410VgnVCM100000171f5a0aRCRD&vgnextoid=82cb8d0e78d22110VgnVCM1000000b205a0aRCRD,CALLE BAILEN 10 28013 MADRID,PALACIO,CENTRO,439450,4474125,40.415538770017406,-3.7136931154460564,915 592 874,reservasmuseo@catedraldelaalmudena.es,Museos
2073,Museo de la Farmacia Hispana,NULL,El Museo de la Farmacia Hispana solo puede visitarse realizando una reserva con antelación.La visita es gratuita; guiada y tiene una duración aproximada de 1 hora y media. Se realizan durante el curso lectivo; de lunes a viernes y en horario de mañana. El grupo no debe superar las 22 personas.,NULL,NULL,Estaciones 258 y 259 (avenida de la Complutense (Metro Ciudad Universitaria),132; 82; G; U,Ciudad Universitaria (línea 6),2,http://www.madrid.es/sites/v/index.jsp?vgnextchannel=bfa48ab43d6bb410VgnVCM100000171f5a0aRCRD&vgnextoid=58f9ef4d7f71c010VgnVCM1000000b205a0aRCRD,PLAZA RAMON Y CAJAL 0 28040 MADRID,CIUDAD UNIVERSITARIA,MONCLOA-ARAVACA,438415,4477352,40.4445328804645,-3.7262160043788155,913 941 797,museofar@ucm.es,Museos
2107,Museo de la Guardia Civil,NULL,Horario: de lunes a viernes de 9 a 14 horas. Cerrado; sábados; domingos y festivos.,NULL,NULL,Estaciones 256 (calle Beatriz de Bobadilla 2) y 203 (calle General Ampudia 2),2; 45; 44,Guzmán el Bueno (líneas 6; 7),3,http://www.madrid.es/sites/v/index.jsp?vgnextchannel=bfa48ab43d6bb410VgnVCM100000171f5a0aRCRD&vgnextoid=003aef4d7f71c010VgnVCM1000000b205a0aRCRD,CALLE GUZMAN EL BUENO 110 28003 MADRID,VALLEHERMOSO,CHAMBERI,439594,4477325,40.44438523242585,-3.712300118990835,915 146 000; extensiones 48495 (Oficina Museo); 48477 (Salas Museo),dg-estuhistoricos-registro@guardiacivil.org,Museos
2114,Museo de la Real Academia de Bellas Artes de San Fernando,Construido inicialmente para palacio de Don Juan de Goyeneche  el edificio fue adquirido por la Academia de Bellas Artes en 1773 y reformado bajo la dirección de Fernando Chueca Goitia en 1973 y la fachada por Diego de Villanueva en 1774.Visitas guiadas (no grupos): 25 personas máximo (suspendidas temporalmente).  Martes  jueves y viernes no festivos a las 11 horas  excepto Navidad  Semana Santa y agosto.   Visitas para grupos a otras instalaciones diferentes del Museo: jueves no festivos a las 11:30 horas.  Gratuitas y guiadas a los centros escolares y asociaciones a cargo de voluntarios culturales del Museo.   Previa solicitud:   Visitas de grupo: museo.visitas@rabasf.org. Visitas privadas a museo cerrado:  actos.culturales@rabasf.org.  Cumplimentando formulario de petición de reservas en la web.,Colección permanente:  De martes a domingos y festivos de 10 a 14 horas.  Cerrado: todos los lunes y el mes de agosto.   Exposiciones temporales: consultar el apartado específico de la exposición temporal. Días cerrados: 1 y 6 de enero; 1 y 30 de mayo; 9 de noviembre; 24; 25 y 31 de diciembre.  En periodos vacacionales pueden sufrir cambios.,Sevilla (41) en calle Sevilla y calle Alcalá,Sol (líneas C3 y C4),Estaciones 1a y 1b (Puerta del Sol 1) y 28 (calle Alcalá 27),002; 15; 150; 20; 5; 53; M1; 51; 46; 146,Sol (líneas 1; 2; 3) Sevilla (línea 2),1,http://www.madrid.es/sites/v/index.jsp?vgnextchannel=bfa48ab43d6bb410VgnVCM100000171f5a0aRCRD&vgnextoid=924aef4d7f71c010VgnVCM1000000b205a0aRCRD,CALLE ALCALA 13 28014 MADRID,SOL,CENTRO,440558,4474350,40.41765456031193,-3.7006553517170633,915 240 864 (Centralita),museo@rabasf.org,MonumentosEdificiosArtisticos
2066,Museo del Ferrocarril de Madrid,Edificio de carácter monumental. Proyectada por el ingeniero francés Émile Cacheliévre e inaugurada el 30 de marzo de 1880  la estación de Delicias fue la primera gran estación con carácter definitivo de Madrid.,De octubre a mayo:   Lunes a viernes; de 09:30 a 15:00 horas. Sábados y festivos; de 10:00 a 19:00 horas. Domingo; de 10:00 a 15:00 horas.   De junio a septiembre:   Lunes a domingo; de 10 a 15 horas.   Cerrado: 25 de diciembre; 1 y 6 de enero.,NULL,Delicias (líneas C1; C7; C10 y Regional),Estación 172 (,19; 247; 45; 47; 59; 85; 86; 8; 55; 6,Delicias (línea 3),1,http://www.madrid.es/sites/v/index.jsp?vgnextchannel=bfa48ab43d6bb410VgnVCM100000171f5a0aRCRD&vgnextoid=091c4291ae91f010VgnVCM2000000c205a0aRCRD,PASEO DELICIAS 61 28045 MADRID,DELICIAS,ARGANZUELA,441124,4472418,40.400281290485566,-3.693817192160563,915 390 085,NULL,MonumentosEdificiosArtisticos
2058,Museo del Prado,Construido inicialmente como Museo de Ciencias Naturales  este edificio neoclásico fue transformado en pinacoteca de las Colecciones Reales en 1818 con colecciones de pintura  dibujos  grabados  monedas y medallas desde el Románico hasta el siglo XIX.Arquitecto: Juan de Villanueva (1785 - 1808)  Adecuación: Antonio López Aguado (1818 - 1831)  Ampliación: Rafael Moneo (2000 - 2007),De lunes a sábado; de 10 a 20 horas Domingos y festivos; de 10 a 17 horas Cerrado los días 1 de enero; 1 de mayo y 25 de diciembre Horario reducido; de 10 a 14 horas; los días 6 de enero; 24 y 31 de diciembre Horario gratuito; de lunes a sábado; de 18 a 20 horas; domingos y festivos; de 15 a 17 horas,NULL,Atocha  ,Estación 68 (calle Espalter 1),10; 14; 27; 34; 37; 45  ,Estación del Arte (Atocha) (línea 1) Banco de España (línea 2) Retiro (línea 2)  ,1.4.6,http://www.madrid.es/sites/v/index.jsp?vgnextchannel=bfa48ab43d6bb410VgnVCM100000171f5a0aRCRD&vgnextoid=060079262ef5d010VgnVCM1000000b205a0aRCRD,CALLE RUIZ DE ALARCON 23 28014 MADRID,LOS JERONIMOS,RETIRO,441346,4473892,40.41358458131178,-3.691325445518223,913 302 800 / 902 10 70 77,NULL,Museos
2086,Museo del Reloj Grassy,Arquitecto: Eladio Laredo Carranza (1916 - 1917). Fundado por el relojero francés Grassy en 1955  este museo narra la historia de este aparato de medición. Sus fondos  colección privada  consta de una amplia y variada colección de diferentes nacionalidades y los más variados estilos.,El museo está temporalmente cerrado.,Plaza del Rey (54),NULL,Estación 28 (calle Alcalá 27),52; 9; 00; 1; 146; 2; 3; 46; 74; 15; 150; 20; 5; 53; 51,Banco de España (línea 2) Sevilla (línea 2) Gran Vía (Líneas 1 y 5),3,http://www.madrid.es/sites/v/index.jsp?vgnextchannel=bfa48ab43d6bb410VgnVCM100000171f5a0aRCRD&vgnextoid=daeaef4d7f71c010VgnVCM1000000b205a0aRCRD,CALLE GRAN VIA 1 28013 MADRID,CORTES,CENTRO,440779,4474514,40.41914770731552,-3.69806583195521,915 321 007,NULL,Museos
2059,Museo del Romanticismo,Descripción monumental  Construido para casa palacio del Marqués de Matallana por el arquitecto Manuel Rodríguez  dentro de unas líneas clasicistas  tiene algunas leves reminiscencias del barroco  como las molduras en forma de orejeras en los balcones. Las estancias nobles se organizan en torno a dos patios cuadrados. Conserva un interesante jardín romántico. A finales del siglo XVIII el inmueble pasó a estar habitado por los Condes de la Puebla del Maestre y después  desde junio de 1921  fue sede de la Comisaría Regia de Turismo  organismo creado por el II Marqués de la Vega-Inclán. En 1924 se convirtió en Museo Romántico y desde entonces ha sido restaurado e intervenido en diversas ocasiones con motivo de su funcionamiento como museo.  Desde 2001 a 2009 el Museo fue reformado y puesto a punto  en aplicación de un plan museológico consistente en su renovación  ampliando su ámbito temático desde lo meramente literario hasta lo histórico  político  artístico y decorativo  para dar una visión de conjunto de esta etapa de la vida española. Muestra la ambientación de una casa romántica. Posee obras de los pintores más importantes del siglo XIX (Goya  Madrazo y otros) junto a esculturas  muebles  porcelanas  abanicos y todo tipo de complementos decorativos que nos recuerdan la forma de vida de una familia burguesa del siglo XIX.,Horario de invierno (de noviembre a abril) De martes a sábado: de 9:30 a 18:30. Domingos y festivos: de 10 a 15 horas  Horario de verano (de mayo a octubre) De martes a sábado: de 9:30 a 20:30. Domingos y festivos: de 10 a 15 horas  Cerrado: Todos los lunes; 1 y 6 enero; 1 mayo; 9 noviembre; 24; 25 y 31 diciembre,Barceló (69) en C/ Barceló en s/n,Recoletos  ,Estación 7 (calle Hortaleza 75) / Estación 54 (calle Barceló 7)  ,37; 149; 42; 3  ,Tribunal (líneas 1; 10) Alonso Martínez (líneas 4; 5; 10)  ,1.6,http://www.madrid.es/sites/v/index.jsp?vgnextchannel=bfa48ab43d6bb410VgnVCM100000171f5a0aRCRD&vgnextoid=706cef4d7f71c010VgnVCM1000000b205a0aRCRD,CALLE SAN MATEO 13 28004 MADRID,JUSTICIA,CENTRO,440725,4475259,40.42585510296794,-3.6987835425963063,914 481 045 / 914 480 163,informacion.romanticismo@cultura.gob.es,Museos
6337393,Museo del Seguro. Fundación Mapfre,Ubicado en el edificio de Fundación MAPFRE exhibe una amplia colección de piezas relacionadas con la historia de la actividad aseguradora desde el siglo XVIII hasta nuestros días. Ofrece visitas guiadas y gratuitas para grupos.,Visitas en grupo previa reserva en su web.,Garaje Piamonte (96) en calle Piamonte en 16,Recoletos (Líneas C1; C2; C7; C8; C10),Estaciones 26 (plaza de las Salesas 7) y 94 (paseo Recoletos 20),37; 14; 150; 27; 45; 5; 53; C03,Colón (línea 4),3,http://www.madrid.es/sites/v/index.jsp?vgnextchannel=bfa48ab43d6bb410VgnVCM100000171f5a0aRCRD&vgnextoid=479b95f8c72d5310VgnVCM2000000c205a0aRCRD,CALLE BARBARA DE BRAGANZA 14 28004 MADRID,JUSTICIA,CENTRO,441273,4474967,40.42326356132727,-3.6922850587679505,NULL,NULL,Museos
2115,Museo del Traje. Centro de Investigación del Patrimonio Etnológico (CIPE),Edificio de carácter monumental  construido por Jaime López de Asiaín en 1969.,Salas de exposiciones   Martes a sábado; de 9:30 a 19:00 horas Domingos y festivos; de 10 a 15:00 horas  La taquilla finaliza su actividad de venta de entradas 15 minutos antes de la hora del cierre de la exposición.  Noches de verano - Verano en el Museo   Los jueves de julio y agosto; apertura extraordinaria: 9:30 - 22:30 horas  Cerrado: lunes; 1 enero; 1 y 15 mayo; 24; 25 y 31 diciembre,NULL,NULL,NULL,46; 160; 161; U; 82; G; 132; 83; 133; 162,Ciudad Universitaria (línea 6)  ,1.4,http://www.madrid.es/sites/v/index.jsp?vgnextchannel=bfa48ab43d6bb410VgnVCM100000171f5a0aRCRD&vgnextoid=053c4291ae91f010VgnVCM2000000c205a0aRCRD,AVENIDA JUAN DE HERRERA 2 28040 MADRID,CIUDAD UNIVERSITARIA,MONCLOA-ARAVACA,438273,4476811,40.439657822278555,-3.7278378564088275,915 504 700,NULL,Museos
2061,Palacio Real de El Pardo,Recinto en el que se conserva el Palacio  construido sobre el castillo del siglo XV  la Casita del Príncipe  del siglo XVIII y la Quinta del Duque de Arco (Palacete que fue Casa de Labor y sus tierras). Desde 1983 ha sido adecuado para residencia de Jefes de Estado extranjeros en visita oficial.,Consultar la  web  o telefónicamente.,NULL,NULL,NULL,601 (Madrid - Colonia Mingorrubio),NULL,1,http://www.madrid.es/sites/v/index.jsp?vgnextchannel=bfa48ab43d6bb410VgnVCM100000171f5a0aRCRD&vgnextoid=9f9def4d7f71c010VgnVCM1000000b205a0aRCRD,CALLE MANUEL ALONSO 8 28048 MADRID,EL PARDO,FUENCARRAL-EL PARDO,434247,4485823,40.520522342970146,-3.7762390614462853,914 548 700 (Información general),info@patrimonionacional.es,MonumentosEdificiosArtisticos
2062,Palacio Real de Madrid,Construido sobre el solar del antiguo Alcázar tras un incendio en 1734. Proyectado por Juvara en 1735 y construido por Sachet de 1738 a 1764 bajo las influencias del clasicismo barroco. A partir de 1770  Sabatini añadió el ala sudeste y realizó la gran escalera. Es de destacar el gran patio que articula el edificio y la fachada principal que aloja el balcón y Escudo Real.,Lunes a sábado; de 10 a 18 horas. Domingos y festivos; de 10 a 16 horas.  Para cierres durante el año o motivados por la celebración de actos oficiales o festividad en el municipio consultar la web.  Jardines del Campo del Moro   Todos los días; de 10 a 18 horas.,NULL,Príncipe Pío,Estación 36 (Plaza de Ramales 1),3; 25; 39; 148,Ópera (líneas 2; 5 y Ramal Ópera Norte),1,http://www.madrid.es/sites/v/index.jsp?vgnextchannel=bfa48ab43d6bb410VgnVCM100000171f5a0aRCRD&vgnextoid=47ddef4d7f71c010VgnVCM1000000b205a0aRCRD,CALLE BAILEN 0 28013 MADRID,PALACIO,CENTRO,439540,4474703,40.42075212551193,-3.712699107286406,914 548 700 (Información general),info@patrimonionacional.es,MonumentosEdificiosArtisticos
2079,Panteón de Hombres Ilustres,La construcción de este edificio responde a dos de las constantes de fines de siglo: la arquitectura historicista y la escultura funeraria. En él reposan trece personajes ilustres de la historia política y militar española.,De martes a sábado de 10 a 14 y de 16 a 18:30 horas Domingos y festivos de 10 a 15 horas Cerrado todos los lunes del año,NULL,Atocha,NULL,10; 14; 24; 32; 37; 54; 57; 141; 26; C1; C2; 102  ,Estación del Arte (Atocha) (línea 1)  ,1,http://www.madrid.es/sites/v/index.jsp?vgnextchannel=bfa48ab43d6bb410VgnVCM100000171f5a0aRCRD&vgnextoid=361cef4d7f71c010VgnVCM1000000b205a0aRCRD,CALLE JULIAN GAYARRE 3 28014 MADRID,PACIFICO,RETIRO,442012,4473070,40.40622617519116,-3.683413041846525,914 548 700 (Información general),info@patrimonionacional.es,MonumentosEdificiosArtisticos
3362,Parroquia Santa Cruz,NULL,NULL,Plaza Mayor (55) y Jacinto Benavente (15) plaza Jacinto Benavente,Sol (líneas C3;C4 y Regional),Estaciones 32 (plaza de la Provincia 1) 34 (plaza de Jacinto Benavente) 40 (plaza del Conde Romanones 9),50; 26; 32; 6; 65; 18; 23; 17; 002; M1; 31,Sol (líneas 1; 2 y 3) Tirso de Molina (línea 1),3,http://www.madrid.es/sites/v/index.jsp?vgnextchannel=bfa48ab43d6bb410VgnVCM100000171f5a0aRCRD&vgnextoid=40e0b069a541f010VgnVCM1000000b205a0aRCRD,CALLE ATOCHA 6 28012 MADRID,SOL,CENTRO,440165,4474015,40.414608558946085,-3.705255882048698,913 691 239,santacruz@archimadrid.es,MonumentosEdificiosArtisticos
2213,Planetario de Madrid,Inaugurado el 29 de septiembre de 1986  es un centro dependiente del Área de Cultura  Turismo y Deporte del Ayuntamiento de Madrid. Durante los años 2016/2017 fue sometido a una profunda renovación tanto tecnológica como de las instalaciones y edificio  posible en virtud de un acuerdo de colaboración entre el Ayuntamiento de Madrid y la Obra Social &amp;ldquo;la Caixa&amp;rdquo; &amp;ndash; que incluye dotación de contenidos  renovación de exposiciones y la realización de actividades varias en el campo de la divulgación científica. Siempre con el fin de contribuir a la difusión de la astronomía y de la ciencia en general  tanto entre escolares como entre el público de cualquier edad y condición  posee una variada oferta de proyecciones audiovisuales  exposiciones y actividades (talleres  cursos  conferencias  observaciones públicas...). Las proyecciones que se ofrecen en el Planetario de Madrid se renuevan periódicamente y tienen una duración aproximada de 30 minutos. Existen dos programaciones básicas diferentes: una activa durante el verano y época de vacaciones escolares  y otra durante el curso escolar. Durante el curso escolar  las proyecciones de las mañanas de los días lectivos se reservan a escolares.   Video de presentación del centro   Folleto informativo (PDF)  Planetario en  Google Maps,Horario del centro (curso escolar 2021-22; adaptación a CoviD-19): De martes a domingo; de 10:00 a 13:30 y de 17:00 (*) a 19:30.  Acceso permitido sólo a público con entradas ya adquiridas. Visita pautada.  Cerrado: Todos los lunes del año. Días 1 y 6 de enero; 1 de mayo; 24; 25 y 31 de diciembre. (*) Viernes; de 17:30 a 19:30 h.,NULL,NULL,Estación 177 (Calle Bolívar 3),148; 156,Méndez Álvaro (línea 6),1.6,http://www.madrid.es/sites/v/index.jsp?vgnextchannel=bfa48ab43d6bb410VgnVCM100000171f5a0aRCRD&vgnextoid=c9c5b069a541f010VgnVCM1000000b205a0aRCRD,AVENIDA PLANETARIO 16 28045 MADRID,LEGAZPI,ARGANZUELA,441868,4471523,40.392279999540044,-3.684956957448299,"914 673 461 (reserva grupos)                                                                                                                                                                                                                                                                                                                                                                                                                                               
914 673 898 (contestador automático de información)",buzon@planetmad.es,Planetarios
3359,Real Basílica San Francisco el Grande,Conjunto conventual que sustituyó al monasterio franciscano medieval  construido por Francisco de las Cabezas entre 1761 y 1768  que fue relevado por Antonio Polo y que concluye Francisco Sabatini en 1784 donde se exponen colecciones de pinturas de los siglos XVII al XIX.,Visita Guiada Museo:    De martes a viernes de 10:30 a 12:30 y de 16 a 18 horas.  Julio; agosto y septiembre: de martes a viernes de 10:30 a 12:30 y de 17 a 19 horas.   Sábados de 10:30 a 12:30 y de 16 a 18 horas (entrada libre sin guía).,NULL,NULL,Estación 37 (Plaza San Francisco 5),002; 17; 18; 23; 35; 60,La Latina (línea 5) ; Puerta de Toledo (línea 5),3,http://www.madrid.es/sites/v/index.jsp?vgnextchannel=bfa48ab43d6bb410VgnVCM100000171f5a0aRCRD&vgnextoid=ef8d0713fb71c010VgnVCM1000000b205a0aRCRD,CALLE SAN BUENAVENTURA 1 28005 MADRID,PALACIO,CENTRO,439377,4473603,40.41084005024222,-3.714503845728281,913 653 800,NULL,MonumentosEdificiosArtisticos
2087,Real Fábrica de Tapices,NULL,Visitas guiadas: Lunes a viernes a las 10; 11; 12 y 13 horas en castellano. Duración de la visita 40 minutos. Es obligatorio efectuar una reserva previa mediante el correo electrónico visitasmuseo@realfabricadetapices.com.,NULL,NULL,Estación 79 (avenida de menéndez Pelayo 38),10; 14; 26; 32; C1; C2; 141; 24; 37; 54; 57; 152,Menéndez Pelayo (línea 1),3,http://www.madrid.es/sites/v/index.jsp?vgnextchannel=bfa48ab43d6bb410VgnVCM100000171f5a0aRCRD&vgnextoid=53cbff632081c010VgnVCM1000000b205a0aRCRD,CALLE FUENTERRABIA 2 28014 MADRID,PACIFICO,RETIRO,442087,4473054,40.406087329011655,-3.682515969574079,914 340 550,informacion@realfabricadetapices.com,MonumentosEdificiosArtisticos
4707297,Real Monasterio de Santa Isabel,El Real Monasterio de Santa Isabel está situado en Madrid  dentro de la ciudad histórica  en una gran manzana  próxima a Atocha. Santa Isabel agrupa dos fundaciones  un colegio de niñas  establecido por Felipe II  y un convento de clausura de monjas agustinas recoletas  fundado por la esposa de Felipe III  doña Margarita de Austria. La arquitectura de la iglesia se debe a Gómez de Mora  de mediados del siglo XVIII. En la clausura se conservan numerosas obras pictóricas de los siglos XVII y XVIII.,El acceso al templo sólo es posible en horario de culto.,NULL,Atocha,NULL,26; 32; 6; 27; 34; C1  ,Estación del Arte (Atocha) (línea 1)  ,3,http://www.madrid.es/sites/v/index.jsp?vgnextchannel=bfa48ab43d6bb410VgnVCM100000171f5a0aRCRD&vgnextoid=545b544a249c6110VgnVCM1000000b205a0aRCRD,CALLE SANTA ISABEL 48 28012 MADRID,EMBAJADORES,CENTRO,440655,4473736,40.41213027498252,-3.6994547941964946,914 548 700 (Información general),info@patrimonionacional.es,MonumentosEdificiosArtisticos
3349,Real Monasterio de la Encarnación,Edificio construído por Juan Gómez de Mora de 1611 a 1616 como monasterio anejo al Alcázar Real  modelo de lo que se ha dado en llamar barroco madrileño. Cuenta con la reliquia de San Pantaleón.,Consultar horarios.,NULL,NULL,Estación 25 a y b (Plaza Celenque 1),3; 25; 39; 148  ,Ópera (líneas 2; 5 y Ramal Ópera Príncipe Pío) Plaza de España (líneas 3; 10)  ,3,http://www.madrid.es/sites/v/index.jsp?vgnextchannel=bfa48ab43d6bb410VgnVCM100000171f5a0aRCRD&vgnextoid=72ad0713fb71c010VgnVCM1000000b205a0aRCRD,PLAZA ENCARNACION 1 28013 MADRID,PALACIO,CENTRO,439634,4474582,40.41967800877382,-3.711567962866152,914 548 700 (Información general),info@patrimonionacional.es,MonumentosEdificiosArtisticos
3348,Real Monasterio de las Descalzas Reales,Convento fundado por la Princesa Juana de Austria  transformando un antiguo palacio de su madre Isabel de Portugal.,Consultar la  web  o telefónicamente.,NULL,NULL,Estación 25 a y b (Plaza de Celenque),3; 25; 39; 148,Ópera (líneas 2; 5 y Ramal Ópera-Príncipe Pío),3,http://www.madrid.es/sites/v/index.jsp?vgnextchannel=bfa48ab43d6bb410VgnVCM100000171f5a0aRCRD&vgnextoid=12e113db5b71c010VgnVCM1000000b205a0aRCRD,PLAZA DESCALZAS 3 28013 MADRID,SOL,CENTRO,440087,4474418,40.418233359889484,-3.706213134639163,914 548 700,info@patrimonionacional.es,MonumentosEdificiosArtisticos
20605,Templo de Debod,Templo egipcio dedicado a Amón de Debod y a Isis  construido entre 185 AC y el siglo I de la Era. Fue donado por Egipto a España en 1968  en agradecimiento por la ayuda en el salvamento de los templos de Abu Simbel.  Egyptian temple dedicated to Amun of Debod and Isis. It was built between 185 BC and the 1st century. It was donated by Egypt to Spain in 1968 for its help in the rescue of the temples of Abu Simbel.El templo de Debod no cuenta en la actualidad con accesos adaptados a personas con movilidad reducida y la circulación en su interior es igualmente difícil. Puedes consultar en el documento Templo de Debod. Turismo accesible  las características de su accesibilidad.  Debod temple has currently no access adapted for people with reduced mobility.    El templo es un monumento histórico de una antig&amp;uuml;edad de 2.200 años. Su estructura interna  que constituye el espacio de actual de exposición  está formada por distintas salas de dimensiones reducidas  con vanos estrechos y numerosas barreras  que responden a los fines y necesidades de los cultos religiosos que en él tuvieron lugar  pero que imposibilitan la circulación con sillas de ruedas convencionales.  La legislación sobre accesibilidad vigente en nuestra Comunidad (Ley 8/1993 de 22 de Junio de Promoción de la Accesibilidad y Supresión de Barreras Arquitectónicas)  en su disposición adicional 7&amp;ordf;  exime de su aplicación en los inmuebles declarados Bien de Interés Cultural o en aquellos edificios de valor histórico-artístico. No obstante  se está trabajando en hacer accesibles las plataformas en las que se levanta el templo y sus dos portales.,Martes a domingo y festivos; de 10 a 19  horas.  Cerrado los lunes y los días 1 y 6 de enero; 1 de mayo; 24; 25 y 31 de diciembre. Último pase de visita 30 minutos antes del cierre. El horario y la apertura de salas pueden sufrir modificaciones. Por favor; confírmelo en el teléfono de información del museo.,dentro del Área de Estacionamiento Regulado de la ciudad de Madrid,Príncipe Pío  ,Estación 115 (calle Evaristo San Miguel s/n,1; 2; 3; 25; 39; 44; 46; 74; 75; 133; 138; 148; C1 y C2 ,Plaza de España (líneas 3 y 10) y Ventura Rodríguez (línea 3) ,0.6,http://www.madrid.es/sites/v/index.jsp?vgnextchannel=bfa48ab43d6bb410VgnVCM100000171f5a0aRCRD&vgnextoid=13b432df1d51c010VgnVCM2000000c205a0aRCRD,CALLE FERRAZ 1 28008 MADRID,CASA DE CAMPO,MONCLOA-ARAVACA,439218,4475093,40.42425096551599,-3.716531855540272,913 667 415 (Museo de San Isidro / Templo de Debod),templodebod@madrid.es,MonumentosEdificiosArtisticos
7685664,The Robot Museum (Museo del Robot),NULL,Viernes:  De 17:15 a 20:15 horas.   Sábados: De 16:15 a 20:15 horas.,NULL,NULL,Estación 142 (paseo de la Castellana 42),19; 51; 9; 14; 150; 27; 45; 5; 1; 74,Ruben Darío (línea 5) Nuñez de Balboa (líneas 5 y 9),3,http://www.madrid.es/sites/v/index.jsp?vgnextchannel=bfa48ab43d6bb410VgnVCM100000171f5a0aRCRD&vgnextoid=e0b7b8dc8f719410VgnVCM1000000b205a0aRCRD,CALLE SERRANO 61 28006 MADRID,CASTELLANA,SALAMANCA,441732,4475957,40.43221485554042,-3.6869551422270077,914 478 808,NULL,Museos
7071384,Yacimiento paleontológico. Estación de Metro Carpetana,Durante las obras de remodelación de la estación de Carpetana se descubrieron restos paleontológicos con valiosos hallazgos del Mioceno  lo que ha hecho posible una reconstrucción de los paleoambientes en dos yacimientos verticales.,Todos los días durante la apertura de la estación; de 6 a 1:30 horas.,NULL,NULL,NULL,119; 55; 17; 25,Carpetana (línea 6),1,http://www.madrid.es/sites/v/index.jsp?vgnextchannel=bfa48ab43d6bb410VgnVCM100000171f5a0aRCRD&vgnextoid=05fbb57fd3c70410VgnVCM1000000b205a0aRCRD,CALLE VIA CARPETANA 141 28047 MADRID,VISTA ALEGRE,CARABANCHEL,437086,4471590,40.39254099575156,-3.7413026173286053,NULL,NULL,Museos
10873287,Zapadores Ciudad del Arte,NULL,Sábados y domingos de 12 a 18 horas.,NULL,NULL,NULL,NULL,NULL,3,http://www.madrid.es/sites/v/index.jsp?vgnextchannel=bfa48ab43d6bb410VgnVCM100000171f5a0aRCRD&vgnextoid=c30ab3683ea58610VgnVCM2000001f4a900aRCRD,CALLE ANTONIO DE CABEZON 70 28034 MADRID,VALVERDE,FUENCARRAL-EL PARDO,442223,4483003,40.49572804745456,-3.6818117500732046,NULL,NULL,Museos
